{
    "links": {
        "self": "http://www.neowsapp.com/rest/v1/neo/3409644?api_key=iIulBulltgU6a56xZRHN4H3l9WmuAYTsLGpBGhQ2"
    },
    "id": "3409644",
    "neo_reference_id": "3409644",
    "name": "(2008 HY1)",
    "designation": "2008 HY1",
    "nasa_jpl_url": "http://ssd.jpl.nasa.gov/sbdb.cgi?sstr=3409644",
    "absolute_magnitude_h": 23.7,
    "estimated_diameter": {
        "kilometers": {
            "estimated_diameter_min": 0.0483676488,
            "estimated_diameter_max": 0.1081533507
        },
        "meters": {
            "estimated_diameter_min": 48.3676488219,
            "estimated_diameter_max": 108.1533506775
        },
        "miles": {
            "estimated_diameter_min": 0.0300542543,
            "estimated_diameter_max": 0.0672033557
        },
        "feet": {
            "estimated_diameter_min": 158.6865169607,
            "estimated_diameter_max": 354.8338390368
        }
    },
    "is_potentially_hazardous_asteroid": false,
    "close_approach_data": [
        {
            "close_approach_date": "2007-11-20",
            "close_approach_date_full": "2007-Nov-20 10:15",
            "epoch_date_close_approach": 1195553700000,
            "relative_velocity": {
                "kilometers_per_second": "12.7933067892",
                "kilometers_per_hour": "46055.904441043",
                "miles_per_hour": "28617.3479567136"
            },
            "miss_distance": {
                "astronomical": "0.4410362483",
                "lunar": "171.5631005887",
                "kilometers": "65978083.338471121",
                "miles": "40996879.9359426298"
            },
            "orbiting_body": "Earth"
        },
        {
            "close_approach_date": "2008-04-14",
            "close_approach_date_full": "2008-Apr-14 21:06",
            "epoch_date_close_approach": 1208207160000,
            "relative_velocity": {
                "kilometers_per_second": "16.0009371324",
                "kilometers_per_hour": "57603.3736765262",
                "miles_per_hour": "35792.4962713949"
            },
            "miss_distance": {
                "astronomical": "0.1200638472",
                "lunar": "46.7048365608",
                "kilometers": "17961295.805125464",
                "miles": "11160631.6879368432"
            },
            "orbiting_body": "Earth"
        }
    ],
    "orbital_data": {
        "orbit_id": "6",
        "orbit_determination_date": "2017-04-06 09:03:39",
        "first_observation_date": "2008-04-26",
        "last_observation_date": "2008-04-28",
        "data_arc_in_days": 2,
        "observations_used": 16,
        "orbit_uncertainty": "9",
        "minimum_orbit_intersection": ".119989",
        "jupiter_tisserand_invariant": "4.123",
        "epoch_osculation": "2454583.5",
        "eccentricity": ".4316130868176682",
        "semi_major_axis": "1.622846982066203",
        "inclination": "24.50729641654922",
        "ascending_node_longitude": "33.91877197145556",
        "orbital_period": "755.1179345796794",
        "perihelion_distance": ".9224049867038723",
        "perihelion_argument": "108.2836371427602",
        "aphelion_distance": "2.323288977428534",
        "perihelion_time": "2454519.046595148234",
        "mean_anomaly": "30.72794948189298",
        "mean_motion": ".4767467219546129",
        "equinox": "J2000",
        "orbit_class": {
            "orbit_class_type": "APO",
            "orbit_class_description": "Near-Earth asteroid orbits which cross the Earth’s orbit similar to that of 1862 Apollo",
            "orbit_class_range": "a (semi-major axis) > 1.0 AU; q (perihelion) < 1.017 AU"
        }
    },
    "is_sentry_object": false
}